{"type": "FeatureCollection", "features": [ {"type": "Feature", "properties": {"norad_id": 32260, "name": "GPS BIIRM-4 (PRN 15)", "group": "gnss", "lat": 48.19606502558009, "lon": 142.63806535875463, "alt_km": 19760.87337054581, "timestamp": "2025-12-02T08:59:32.956051+00:00", "meta": {"OBJECT_NAME": "GPS BIIRM-4 (PRN 15)", "OBJECT_ID": "2007-047A", "EPOCH": "2025-12-01T06:52:15.674592", "MEAN_MOTION": 2.00564902, "ECCENTRICITY": 0.0164402, "INCLINATION": 53.9473, "RA_OF_ASC_NODE": 88.2317, "ARG_OF_PERICENTER": 85.1099, "MEAN_ANOMALY": 276.7472, "EPHEMERIS_TYPE": 0, "CLASSIFICATION_TYPE": "U", "NORAD_CAT_ID": 32260, "ELEMENT_SET_NO": 999, "REV_AT_EPOCH": 13284, "BSTAR": 0, "MEAN_MOTION_DOT": -3e-08, "MEAN_MOTION_DDOT": 0}, "tle": {"line1": "1 32260U 07047A   25335.28629253 -.00000003  00000+0  00000+0 0  9998", "line2": "2 32260  53.9473  88.2317 0164402  85.1099 276.7472  2.00564902132845"}}, "geometry": {"type": "Point", "coordinates": [142.63806535875463, 48.19606502558009]}}, {"type": "Feature", "properties": {"norad_id": 32275, "name": "COSMOS 2433 (720)", "group": "gnss", "lat": 52.09008579888628, "lon": -1.957323510310529, "alt_km": 19137.88048142488, "timestamp": "2025-12-02T08:59:32.956064+00:00", "meta": {"OBJECT_NAME": "COSMOS 2433 (720)", "OBJECT_ID": "2007-052A", "EPOCH": "2025-11-30T21:19:42.713184", "MEAN_MOTION": 2.13103931, "ECCENTRICITY": 0.0005603, "INCLINATION": 65.6896, "RA_OF_ASC_NODE": 322.6041, "ARG_OF_PERICENTER": 251.7328, "MEAN_ANOMALY": 108.2221, "EPHEMERIS_TYPE": 0, "CLASSIFICATION_TYPE": "U", "NORAD_CAT_ID": 32275, "ELEMENT_SET_NO": 999, "REV_AT_EPOCH": 14083, "BSTAR": 0, "MEAN_MOTION_DOT": -2.3e-07, "MEAN_MOTION_DDOT": 0}, "tle": {"line1": "1 32275U 07052A   25334.88868881 -.00000023  00000+0  00000+0 0  9999", "line2": "2 32275  65.6896 322.6041 0005603 251.7328 108.2221  2.13103931140836"}}, "geometry": {"type": "Point", "coordinates": [-1.957323510310529, 52.09008579888628]}}, {"type": "Feature", "properties": {"norad_id": 32276, "name": "COSMOS 2432 (719)", "group": "gnss", "lat": 4.1505565335158865, "lon": -35.44799942916824, "alt_km": 19112.785636805656, "timestamp": "2025-12-02T08:59:32.956077+00:00", "meta": {"OBJECT_NAME": "COSMOS 2432 (719)", "OBJECT_ID": "2007-052B", "EPOCH": "2025-12-01T01:47:57.960960", "MEAN_MOTION": 2.13103067, "ECCENTRICITY": 0.00112256, "INCLINATION": 65.7054, "RA_OF_ASC_NODE": 322.7218, "ARG_OF_PERICENTER": 311.1678, "MEAN_ANOMALY": 136.2023, "EPHEMERIS_TYPE": 0, "CLASSIFICATION_TYPE": "U", "NORAD_CAT_ID": 32276, "ELEMENT_SET_NO": 999, "REV_AT_EPOCH": 14086, "BSTAR": 0, "MEAN_MOTION_DOT": -2.4e-07, "MEAN_MOTION_DDOT": 0}, "tle": {"line1": "1 32276U 07052B   25335.07497640 -.00000024  00000+0  00000+0 0  9994", "line2": "2 32276  65.7054 322.7218 0011225 311.1678 136.2023  2.13103067140861"}}, "geometry": {"type": "Point", "coordinates": [-35.44799942916824, 4.1505565335158865]}}, {"type": "Feature", "properties": {"norad_id": 32384, "name": "GPS BIIRM-5 (PRN 29)", "group": "gnss", "lat": -13.735835193360296, "lon": 111.82017725130352, "alt_km": 20111.94528650145, "timestamp": "2025-12-02T08:59:32.956089+00:00", "meta": {"OBJECT_NAME": "GPS BIIRM-5 (PRN 29)", "OBJECT_ID": "2007-062A", "EPOCH": "2025-11-30T01:46:38.777952", "MEAN_MOTION": 2.0057652, "ECCENTRICITY": 0.00321996, "INCLINATION": 55.1935, "RA_OF_ASC_NODE": 282.1541, "ARG_OF_PERICENTER": 162.9568, "MEAN_ANOMALY": 172.309, "EPHEMERIS_TYPE": 0, "CLASSIFICATION_TYPE": "U", "NORAD_CAT_ID": 32384, "ELEMENT_SET_NO": 999, "REV_AT_EPOCH": 13151, "BSTAR": 0, "MEAN_MOTION_DOT": -3.9e-07, "MEAN_MOTION_DDOT": 0}, "tle": {"line1": "1 32384U 07062A   25334.07405993 -.00000039  00000+0  00000+0 0  9990", "line2": "2 32384  55.1935 282.1541 0032199 162.9568 172.3090  2.00576520131514"}}, "geometry": {"type": "Point", "coordinates": [111.82017725130352, -13.735835193360296]}}, {"type": "Feature", "properties": {"norad_id": 32393, "name": "COSMOS 2434 (721)", "group": "gnss", "lat": -43.24788416951725, "lon": 171.65247371334533, "alt_km": 19140.779998423575, "timestamp": "2025-12-02T08:59:32.956101+00:00", "meta": {"OBJECT_NAME": "COSMOS 2434 (721)", "OBJECT_ID": "2007-065A", "EPOCH": "2025-12-01T06:30:38.524608", "MEAN_MOTION": 2.13101181, "ECCENTRICITY": 0.00043375, "INCLINATION": 64.3147, "RA_OF_ASC_NODE": 198.5905, "ARG_OF_PERICENTER": 70.7489, "MEAN_ANOMALY": 113.3938, "EPHEMERIS_TYPE": 0, "CLASSIFICATION_TYPE": "U", "NORAD_CAT_ID": 32393, "ELEMENT_SET_NO": 999, "REV_AT_EPOCH": 13955, "BSTAR": 0, "MEAN_MOTION_DOT": 1.02e-06, "MEAN_MOTION_DDOT": 0}, "tle": {"line1": "1 32393U 07065A   25335.27127922  .00000102  00000+0  00000+0 0  9999", "line2": "2 32393  64.3147 198.5905 0004337  70.7489 113.3938  2.13101181139555"}}, "geometry": {"type": "Point", "coordinates": [171.65247371334533, -43.24788416951725]}}, {"type": "Feature", "properties": {"norad_id": 32395, "name": "COSMOS 2436 (723)", "group": "gnss", "lat": 63.65016246883301, "lon": -85.25766633232604, "alt_km": 19111.51322617339, "timestamp": "2025-12-02T08:59:32.956113+00:00", "meta": {"OBJECT_NAME": "COSMOS 2436 (723)", "OBJECT_ID": "2007-065C", "EPOCH": "2025-12-01T01:03:25.836192", "MEAN_MOTION": 2.13099978, "ECCENTRICITY": 0.00177119, "INCLINATION": 64.3233, "RA_OF_ASC_NODE": 198.6683, "ARG_OF_PERICENTER": 8.6583, "MEAN_ANOMALY": 134.2889, "EPHEMERIS_TYPE": 0, "CLASSIFICATION_TYPE": "U", "NORAD_CAT_ID": 32395, "ELEMENT_SET_NO": 999, "REV_AT_EPOCH": 13950, "BSTAR": 0, "MEAN_MOTION_DOT": 1e-06, "MEAN_MOTION_DDOT": 0}, "tle": {"line1": "1 32395U 07065C   25335.04404903  .00000100  00000+0  00000+0 0  9991", "line2": "2 32395  64.3233 198.6683 0017711   8.6583 134.2889  2.13099978139504"}}, "geometry": {"type": "Point", "coordinates": [-85.25766633232604, 63.65016246883301]}}, {"type": "Feature", "properties": {"norad_id": 32711, "name": "GPS BIIRM-6 (PRN 07)", "group": "gnss", "lat": 45.13734627210631, "lon": -68.12256560024932, "alt_km": 20481.13576476694, "timestamp": "2025-12-02T08:59:32.956126+00:00", "meta": {"OBJECT_NAME": "GPS BIIRM-6 (PRN 07)", "OBJECT_ID": "2008-012A", "EPOCH": "2025-12-01T16:55:34.250592", "MEAN_MOTION": 2.00564991, "ECCENTRICITY": 0.0202013, "INCLINATION": 54.4753, "RA_OF_ASC_NODE": 157.8135, "ARG_OF_PERICENTER": 244.8275, "MEAN_ANOMALY": 113.1101, "EPHEMERIS_TYPE": 0, "CLASSIFICATION_TYPE": "U", "NORAD_CAT_ID": 32711, "ELEMENT_SET_NO": 999, "REV_AT_EPOCH": 12979, "BSTAR": 0, "MEAN_MOTION_DOT": 1.24e-06, "MEAN_MOTION_DDOT": 0}, "tle": {"line1": "1 32711U 08012A   25335.70525753  .00000124  00000+0  00000+0 0  9992", "line2": "2 32711  54.4753 157.8135 0202013 244.8275 113.1101  2.00564991129796"}}, "geometry": {"type": "Point", "coordinates": [-68.12256560024932, 45.13734627210631]}}, {"type": "Feature", "properties": {"norad_id": 35752, "name": "GPS BIIRM-8 (PRN 05)", "group": "gnss", "lat": 30.832973619741647, "lon": -168.4438882365707, "alt_km": 20108.15346957172, "timestamp": "2025-12-02T08:59:32.956138+00:00", "meta": {"OBJECT_NAME": "GPS BIIRM-8 (PRN 05)", "OBJECT_ID": "2009-043A", "EPOCH": "2025-12-01T04:42:32.815296", "MEAN_MOTION": 2.00566259, "ECCENTRICITY": 0.00521242, "INCLINATION": 56.0822, "RA_OF_ASC_NODE": 35.2386, "ARG_OF_PERICENTER": 82.0997, "MEAN_ANOMALY": 288.3285, "EPHEMERIS_TYPE": 0, "CLASSIFICATION_TYPE": "U", "NORAD_CAT_ID": 35752, "ELEMENT_SET_NO": 999, "REV_AT_EPOCH": 11939, "BSTAR": 0, "MEAN_MOTION_DOT": -6.6e-07, "MEAN_MOTION_DDOT": 0}, "tle": {"line1": "1 35752U 09043A   25335.19621314 -.00000066  00000+0  00000+0 0  9994", "line2": "2 35752  56.0822  35.2386 0052124  82.0997 288.3285  2.00566259119397"}}, "geometry": {"type": "Point", "coordinates": [-168.4438882365707, 30.832973619741647]}}, {"type": "Feature", "properties": {"norad_id": 36111, "name": "COSMOS 2456 (730)", "group": "gnss", "lat": 59.63026432519273, "lon": -155.33843627530786, "alt_km": 19130.11850288304, "timestamp": "2025-12-02T08:59:32.956149+00:00", "meta": {"OBJECT_NAME": "COSMOS 2456 (730)", "OBJECT_ID": "2009-070A", "EPOCH": "2025-12-01T00:19:15.904128", "MEAN_MOTION": 2.13103433, "ECCENTRICITY": 0.00027486, "INCLINATION": 64.8936, "RA_OF_ASC_NODE": 77.7389, "ARG_OF_PERICENTER": 298.5027, "MEAN_ANOMALY": 204.7984, "EPHEMERIS_TYPE": 0, "CLASSIFICATION_TYPE": "U", "NORAD_CAT_ID": 36111, "ELEMENT_SET_NO": 999, "REV_AT_EPOCH": 12420, "BSTAR": 0, "MEAN_MOTION_DOT": -1.4e-07, "MEAN_MOTION_DDOT": 0}, "tle": {"line1": "1 36111U 09070A   25335.01337852 -.00000014  00000+0  00000+0 0  9999", "line2": "2 36111  64.8936  77.7389 0002748 298.5027 204.7984  2.13103433124208"}}, "geometry": {"type": "Point", "coordinates": [-155.33843627530786, 59.63026432519273]}}, {"type": "Feature", "properties": {"norad_id": 36112, "name": "COSMOS 2457 (733)", "group": "gnss", "lat": -49.41667765592731, "lon": -69.30551682823493, "alt_km": 19133.815115254925, "timestamp": "2025-12-02T08:59:32.956162+00:00", "meta": {"OBJECT_NAME": "COSMOS 2457 (733)", "OBJECT_ID": "2009-070B", "EPOCH": "2025-12-01T04:17:17.576160", "MEAN_MOTION": 2.13100803, "ECCENTRICITY": 0.00049655, "INCLINATION": 64.8788, "RA_OF_ASC_NODE": 77.581, "ARG_OF_PERICENTER": 155.592, "MEAN_ANOMALY": 243.7721, "EPHEMERIS_TYPE": 0, "CLASSIFICATION_TYPE": "U", "NORAD_CAT_ID": 36112, "ELEMENT_SET_NO": 999, "REV_AT_EPOCH": 12421, "BSTAR": 0, "MEAN_MOTION_DOT": -1.5e-07, "MEAN_MOTION_DDOT": 0}, "tle": {"line1": "1 36112U 09070B   25335.17867565 -.00000015  00000+0  00000+0 0  9997", "line2": "2 36112  64.8788  77.5810 0004965 155.5920 243.7721  2.13100803124219"}}, "geometry": {"type": "Point", "coordinates": [-69.30551682823493, -49.41667765592731]}}]}